IRIDIUM 116             
1 43072U 17083C   24323.41540377  .00000459  00000+0  15677-3 0  9996
2 43072  86.4015 202.6186 0001921  78.6201 281.5211 14.34221164361642
IRIDIUM 130             
1 43073U 17083D   24323.38370548  .00000129  00000+0  38909-4 0  9992
2 43073  86.4025 202.8510 0002167  78.9554 281.1885 14.34215547361588
IRIDIUM 151             
1 43074U 17083E   24323.42810650  .00000419  00000+0  14265-3 0  9991
2 43074  86.4017 202.6581 0001874  83.9257 276.2153 14.34214150361612
IRIDIUM 134             
1 43075U 17083F   24323.39637871  .00000050  00000+0  10750-4 0  9997
2 43075  86.4018 202.6716 0001991  79.2462 280.8958 14.34216878361578
IRIDIUM 137             
1 43076U 17083G   24323.19975620  .00000466  00000+0  15937-3 0  9995
2 43076  86.4021 202.8343 0001463  78.3457 281.7902 14.34215994361611
IRIDIUM 141             
1 43077U 17083H   24323.40273108  .00000428  00000+0  14563-3 0  9994
2 43077  86.4016 202.6134 0002286  86.1868 273.9589 14.34217560361647
IRIDIUM 153             
1 43078U 17083J   24323.56420710  .00000456  00000+0  15592-3 0  9999
2 43078  86.4000 171.0763 0002514  96.7298 263.4184 14.34219545362771
IRIDIUM 131             
1 43079U 17083K   24323.39003898  .00000432  00000+0  14709-3 0  9998
2 43079  86.4021 202.7660 0002107  88.1465 271.9972 14.34219359361571
